RAMSAT                  
1 48850U 98067SL  21186.46228084  .00006434  00000-0  12108-3 0  9999
2 48850  51.6419 252.2173 0003756 205.6642 154.4161 15.49886712  3300
SOAR                    
1 48851U 98067SM  21186.45918395  .00017468  00000-0  30928-3 0  9999
2 48851  51.6411 252.1963 0002989 208.5671 151.5155 15.50372870  3342
BD-28                   
1 48867U 98067SN  21185.49771770  .00008473  00000-0  15631-3 0  9993
2 48867  51.6446 257.0203 0002469 233.9032 126.1606 15.49993771  1900
MIR-SAT 1               
1 48868U 98067SP  21185.49968649  .00014826  00000-0  26905-3 0  9992
2 48868  51.6454 257.0327 0002256 200.7300 159.3539 15.49809171  1937
